ATLAS CENTAUR R/B       
1 06155U 72065B   25319.82991675  .00002198  00000+0  30504-3 0  9998
2 06155  35.0013 252.8194 0033280 133.4961 226.8514 14.77311366824411
SL-8 R/B                
1 08459U 75112B   25320.46633860  .00000557  00000+0  19218-3 0  9990
2 08459  74.0608 227.1812 0015893 342.1656  17.8938 14.38122034615599
SL-3 R/B                
1 10114U 77057B   25320.48307632  .00016995  00000+0  39851-3 0  9996
2 10114  97.5676 122.8074 0007303 341.0535  19.0439 15.42119502650868
SEASAT 1                
1 10967U 78064A   25320.46382766  .00000920  00000+0  29604-3 0  9996
2 10967 108.0070 247.9156 0002268 254.2037 105.8859 14.46019631490145
SL-14 R/B               
1 11267U 79011B   25320.42673179  .00001157  00000+0  11215-3 0  9992
2 11267  82.5257 203.9957 0017688  76.8701 283.4491 14.91725900511895
SL-8 R/B                
1 11574U 79089B   25320.40887243  .00000626  00000+0  19753-3 0  9990
2 11574  74.0678 300.7129 0014894 145.8699 214.3418 14.42258146419770
SL-14 R/B               
1 11672U 80005B   25320.36537434  .00001384  00000+0  13809-3 0  9996
2 11672  82.5161  54.7072 0015862 176.1268 184.0077 14.90744124459607
SL-8 R/B                
1 12139U 81003B   25320.49893132  .00032860  00000+0  89925-3 0  9993
2 12139  82.9346  34.3306 0282231 211.0602 147.3681 15.05746533297613
SL-3 R/B                
1 12465U 81046B   25320.43090981  .00017142  00000+0  44172-3 0  9998
2 12465  81.2336  65.3865 0020517  54.7824 305.5334 15.38857390420997
METEOR PRIRODA          
1 12585U 81065A   25320.78896573  .01699127  24837-5  73931-3 0  9996
2 12585  97.4615  26.0387 0005532 262.9827  97.0834 16.22572560426641
SL-3 R/B                
1 12904U 81103B   25320.45968894  .00009483  00000+0  44100-3 0  9999
2 12904  81.1601 346.1246 0012201 315.7780  44.2474 15.19784452956021
SL-3 R/B                
1 13068U 82013B   25320.45870697  .00006761  00000+0  30392-3 0  9999
2 13068  81.1730 293.3666 0022330 197.5267 162.5197 15.20759915387139
