CCSDS_OMM_VERS = 2.0
CREATION_DATE  = 
ORIGINATOR     = 

OBJECT_NAME    = ATLAS CENTAUR R/B
OBJECT_ID      = 1972-065B
CENTER_NAME    = EARTH
REF_FRAME      = TEME
TIME_SYSTEM    = UTC
MEAN_ELEMENT_THEORY = SGP/SGP4

EPOCH          = 2025-11-15T19:55:04.807200
MEAN_MOTION    = 14.77311366
ECCENTRICITY   = .003328
INCLINATION    = 35.0013
RA_OF_ASC_NODE = 252.8194
ARG_OF_PERICENTER = 133.4961
MEAN_ANOMALY   = 226.8514

EPHEMERIS_TYPE = 0
CLASSIFICATION_TYPE = U
NORAD_CAT_ID   = 6155
ELEMENT_SET_NO = 999
REV_AT_EPOCH   = 82441
BSTAR          = .30504E-3
MEAN_MOTION_DOT = .2198E-4
MEAN_MOTION_DDOT = 0

CCSDS_OMM_VERS = 2.0
CREATION_DATE  = 
ORIGINATOR     = 

OBJECT_NAME    = SL-8 R/B
OBJECT_ID      = 1975-112B
CENTER_NAME    = EARTH
REF_FRAME      = TEME
TIME_SYSTEM    = UTC
MEAN_ELEMENT_THEORY = SGP/SGP4

EPOCH          = 2025-11-16T11:11:31.655040
MEAN_MOTION    = 14.38122034
ECCENTRICITY   = .0015893
INCLINATION    = 74.0608
RA_OF_ASC_NODE = 227.1812
ARG_OF_PERICENTER = 342.1656
MEAN_ANOMALY   = 17.8938

EPHEMERIS_TYPE = 0
CLASSIFICATION_TYPE = U
NORAD_CAT_ID   = 8459
ELEMENT_SET_NO = 999
REV_AT_EPOCH   = 61559
BSTAR          = .19218E-3
MEAN_MOTION_DOT = .557E-5
MEAN_MOTION_DDOT = 0

CCSDS_OMM_VERS = 2.0
CREATION_DATE  = 
ORIGINATOR     = 

OBJECT_NAME    = SL-3 R/B
OBJECT_ID      = 1977-057B
CENTER_NAME    = EARTH
REF_FRAME      = TEME
TIME_SYSTEM    = UTC
MEAN_ELEMENT_THEORY = SGP/SGP4

EPOCH          = 2025-11-16T11:35:37.794048
MEAN_MOTION    = 15.42119502
ECCENTRICITY   = .0007303
INCLINATION    = 97.5676
RA_OF_ASC_NODE = 122.8074
ARG_OF_PERICENTER = 341.0535
MEAN_ANOMALY   = 19.0439

EPHEMERIS_TYPE = 0
CLASSIFICATION_TYPE = U
NORAD_CAT_ID   = 10114
ELEMENT_SET_NO = 999
REV_AT_EPOCH   = 65086
BSTAR          = .39851E-3
MEAN_MOTION_DOT = .16995E-3
MEAN_MOTION_DDOT = 0

CCSDS_OMM_VERS = 2.0
CREATION_DATE  = 
ORIGINATOR     = 

OBJECT_NAME    = SEASAT 1
OBJECT_ID      = 1978-064A
CENTER_NAME    = EARTH
REF_FRAME      = TEME
TIME_SYSTEM    = UTC
MEAN_ELEMENT_THEORY = SGP/SGP4

EPOCH          = 2025-11-16T11:07:54.709824
MEAN_MOTION    = 14.46019631
ECCENTRICITY   = .0002268
INCLINATION    = 108.0070
RA_OF_ASC_NODE = 247.9156
ARG_OF_PERICENTER = 254.2037
MEAN_ANOMALY   = 105.8859

EPHEMERIS_TYPE = 0
CLASSIFICATION_TYPE = U
NORAD_CAT_ID   = 10967
ELEMENT_SET_NO = 999
REV_AT_EPOCH   = 49014
BSTAR          = .29604E-3
MEAN_MOTION_DOT = .92E-5
MEAN_MOTION_DDOT = 0

CCSDS_OMM_VERS = 2.0
CREATION_DATE  = 
ORIGINATOR     = 

OBJECT_NAME    = SL-14 R/B
OBJECT_ID      = 1979-011B
CENTER_NAME    = EARTH
REF_FRAME      = TEME
TIME_SYSTEM    = UTC
MEAN_ELEMENT_THEORY = SGP/SGP4

EPOCH          = 2025-11-16T10:14:29.626656
MEAN_MOTION    = 14.91725900
ECCENTRICITY   = .0017688
INCLINATION    = 82.5257
RA_OF_ASC_NODE = 203.9957
ARG_OF_PERICENTER = 76.8701
MEAN_ANOMALY   = 283.4491

EPHEMERIS_TYPE = 0
CLASSIFICATION_TYPE = U
NORAD_CAT_ID   = 11267
ELEMENT_SET_NO = 999
REV_AT_EPOCH   = 51189
BSTAR          = .11215E-3
MEAN_MOTION_DOT = .1157E-4
MEAN_MOTION_DDOT = 0

CCSDS_OMM_VERS = 2.0
CREATION_DATE  = 
ORIGINATOR     = 

OBJECT_NAME    = SL-8 R/B
OBJECT_ID      = 1979-089B
CENTER_NAME    = EARTH
REF_FRAME      = TEME
TIME_SYSTEM    = UTC
MEAN_ELEMENT_THEORY = SGP/SGP4

EPOCH          = 2025-11-16T09:48:46.577952
MEAN_MOTION    = 14.42258146
ECCENTRICITY   = .0014894
INCLINATION    = 74.0678
RA_OF_ASC_NODE = 300.7129
ARG_OF_PERICENTER = 145.8699
MEAN_ANOMALY   = 214.3418

EPHEMERIS_TYPE = 0
CLASSIFICATION_TYPE = U
NORAD_CAT_ID   = 11574
ELEMENT_SET_NO = 999
REV_AT_EPOCH   = 41977
BSTAR          = .19753E-3
MEAN_MOTION_DOT = .626E-5
MEAN_MOTION_DDOT = 0

CCSDS_OMM_VERS = 2.0
CREATION_DATE  = 
ORIGINATOR     = 

OBJECT_NAME    = SL-14 R/B
OBJECT_ID      = 1980-005B
CENTER_NAME    = EARTH
REF_FRAME      = TEME
TIME_SYSTEM    = UTC
MEAN_ELEMENT_THEORY = SGP/SGP4

EPOCH          = 2025-11-16T08:46:08.342976
MEAN_MOTION    = 14.90744124
ECCENTRICITY   = .0015862
INCLINATION    = 82.5161
RA_OF_ASC_NODE = 54.7072
ARG_OF_PERICENTER = 176.1268
MEAN_ANOMALY   = 184.0077

EPHEMERIS_TYPE = 0
CLASSIFICATION_TYPE = U
NORAD_CAT_ID   = 11672
ELEMENT_SET_NO = 999
REV_AT_EPOCH   = 45960
BSTAR          = .13809E-3
MEAN_MOTION_DOT = .1384E-4
MEAN_MOTION_DDOT = 0

CCSDS_OMM_VERS = 2.0
CREATION_DATE  = 
ORIGINATOR     = 

OBJECT_NAME    = SL-8 R/B
OBJECT_ID      = 1981-003B
CENTER_NAME    = EARTH
REF_FRAME      = TEME
TIME_SYSTEM    = UTC
MEAN_ELEMENT_THEORY = SGP/SGP4

EPOCH          = 2025-11-16T11:58:27.666048
MEAN_MOTION    = 15.05746533
ECCENTRICITY   = .0282231
INCLINATION    = 82.9346
RA_OF_ASC_NODE = 34.3306
ARG_OF_PERICENTER = 211.0602
MEAN_ANOMALY   = 147.3681

EPHEMERIS_TYPE = 0
CLASSIFICATION_TYPE = U
NORAD_CAT_ID   = 12139
ELEMENT_SET_NO = 999
REV_AT_EPOCH   = 29761
BSTAR          = .89925E-3
MEAN_MOTION_DOT = .3286E-3
MEAN_MOTION_DDOT = 0

CCSDS_OMM_VERS = 2.0
CREATION_DATE  = 
ORIGINATOR     = 

OBJECT_NAME    = SL-3 R/B
OBJECT_ID      = 1981-046B
CENTER_NAME    = EARTH
REF_FRAME      = TEME
TIME_SYSTEM    = UTC
MEAN_ELEMENT_THEORY = SGP/SGP4

EPOCH          = 2025-11-16T10:20:30.607584
MEAN_MOTION    = 15.38857390
ECCENTRICITY   = .0020517
INCLINATION    = 81.2336
RA_OF_ASC_NODE = 65.3865
ARG_OF_PERICENTER = 54.7824
MEAN_ANOMALY   = 305.5334

EPHEMERIS_TYPE = 0
CLASSIFICATION_TYPE = U
NORAD_CAT_ID   = 12465
ELEMENT_SET_NO = 999
REV_AT_EPOCH   = 42099
BSTAR          = .44172E-3
MEAN_MOTION_DOT = .17142E-3
MEAN_MOTION_DDOT = 0

CCSDS_OMM_VERS = 2.0
CREATION_DATE  = 
ORIGINATOR     = 

OBJECT_NAME    = METEOR PRIRODA
OBJECT_ID      = 1981-065A
CENTER_NAME    = EARTH
REF_FRAME      = TEME
TIME_SYSTEM    = UTC
MEAN_ELEMENT_THEORY = SGP/SGP4

EPOCH          = 2025-11-16T18:56:06.639072
MEAN_MOTION    = 16.22572560
ECCENTRICITY   = .0005532
INCLINATION    = 97.4615
RA_OF_ASC_NODE = 26.0387
ARG_OF_PERICENTER = 262.9827
MEAN_ANOMALY   = 97.0834

EPHEMERIS_TYPE = 0
CLASSIFICATION_TYPE = U
NORAD_CAT_ID   = 12585
ELEMENT_SET_NO = 999
REV_AT_EPOCH   = 42664
BSTAR          = .73931E-3
MEAN_MOTION_DOT = .1699127E-1
MEAN_MOTION_DDOT = .24837E-5

CCSDS_OMM_VERS = 2.0
CREATION_DATE  = 
ORIGINATOR     = 

OBJECT_NAME    = SL-3 R/B
OBJECT_ID      = 1981-103B
CENTER_NAME    = EARTH
REF_FRAME      = TEME
TIME_SYSTEM    = UTC
MEAN_ELEMENT_THEORY = SGP/SGP4

EPOCH          = 2025-11-16T11:01:57.124416
MEAN_MOTION    = 15.19784452
ECCENTRICITY   = .0012201
INCLINATION    = 81.1601
RA_OF_ASC_NODE = 346.1246
ARG_OF_PERICENTER = 315.7780
MEAN_ANOMALY   = 44.2474

EPHEMERIS_TYPE = 0
CLASSIFICATION_TYPE = U
NORAD_CAT_ID   = 12904
ELEMENT_SET_NO = 999
REV_AT_EPOCH   = 95602
BSTAR          = .441E-3
MEAN_MOTION_DOT = .9483E-4
MEAN_MOTION_DDOT = 0

CCSDS_OMM_VERS = 2.0
CREATION_DATE  = 
ORIGINATOR     = 

OBJECT_NAME    = SL-3 R/B
OBJECT_ID      = 1982-013B
CENTER_NAME    = EARTH
REF_FRAME      = TEME
TIME_SYSTEM    = UTC
MEAN_ELEMENT_THEORY = SGP/SGP4

EPOCH          = 2025-11-16T11:00:32.282208
MEAN_MOTION    = 15.20759915
ECCENTRICITY   = .002233
INCLINATION    = 81.1730
RA_OF_ASC_NODE = 293.3666
ARG_OF_PERICENTER = 197.5267
MEAN_ANOMALY   = 162.5197

EPHEMERIS_TYPE = 0
CLASSIFICATION_TYPE = U
NORAD_CAT_ID   = 13068
ELEMENT_SET_NO = 999
REV_AT_EPOCH   = 38713
BSTAR          = .30392E-3
MEAN_MOTION_DOT = .6761E-4
MEAN_MOTION_DDOT = 0

